[
  {
    "COMMENT": "GENERATED VIA SPACETRACK.ORG API",
    "ORIGINATOR": "18 SPCS",
    "NORAD_CAT_ID": "41335",
    "OBJECT_NAME": "SENTINEL 3A",
    "OBJECT_TYPE": "PAYLOAD",
    "CLASSIFICATION_TYPE": "U",
    "INTLDES": "16011A",
    "EPOCH": "2023-06-06 13:36:33",
    "EPOCH_MICROSECONDS": "937344",
    "MEAN_MOTION": "14.26741471",
    "ECCENTRICITY": "0.0001343",
    "INCLINATION": "98.6217",
    "RA_OF_ASC_NODE": "224.774",
    "ARG_OF_PERICENTER": "96.4428",
    "MEAN_ANOMALY": "263.6906",
    "EPHEMERIS_TYPE": "0",
    "ELEMENT_SET_NO": "999",
    "REV_AT_EPOCH": "38026",
    "BSTAR": "0.000082714",
    "MEAN_MOTION_DOT": "0.00000157",
    "MEAN_MOTION_DDOT": "0",
    "FILE": "3926325",
    "TLE_LINE0": "0 SENTINEL 3A",
    "TLE_LINE1": "1 41335U 16011A   23157.56705946  .00000157  00000-0  82714-4 0  9994",
    "TLE_LINE2": "2 41335  98.6217 224.7740 0001343  96.4428 263.6906 14.26741471380269",
    "OBJECT_ID": "2016-011A",
    "OBJECT_NUMBER": "41335",
    "SEMIMAJOR_AXIS": "7180.780",
    "PERIOD": "100.929",
    "APOGEE": "803.610",
    "PERIGEE": "801.681",
    "DECAYED": "0"
  },
  {
    "COMMENT": "GENERATED VIA SPACETRACK.ORG API",
    "ORIGINATOR": "18 SPCS",
    "NORAD_CAT_ID": "41335",
    "OBJECT_NAME": "SENTINEL 3A",
    "OBJECT_TYPE": "PAYLOAD",
    "CLASSIFICATION_TYPE": "U",
    "INTLDES": "16011A",
    "EPOCH": "2023-06-06 18:39:31",
    "EPOCH_MICROSECONDS": "542624",
    "MEAN_MOTION": "14.26741538",
    "ECCENTRICITY": "0.0001345",
    "INCLINATION": "98.6217",
    "RA_OF_ASC_NODE": "224.9813",
    "ARG_OF_PERICENTER": "96.2424",
    "MEAN_ANOMALY": "263.8909",
    "EPHEMERIS_TYPE": "0",
    "ELEMENT_SET_NO": "999",
    "REV_AT_EPOCH": "38029",
    "BSTAR": "0.000080736",
    "MEAN_MOTION_DOT": "0.00000152",
    "MEAN_MOTION_DDOT": "0",
    "FILE": "3926373",
    "TLE_LINE0": "0 SENTINEL 3A",
    "TLE_LINE1": "1 41335U 16011A   23157.77744841  .00000152  00000-0  80736-4 0  9991",
    "TLE_LINE2": "2 41335  98.6217 224.9813 0001345  96.2424 263.8909 14.26741538380290",
    "OBJECT_ID": "2016-011A",
    "OBJECT_NUMBER": "41335",
    "SEMIMAJOR_AXIS": "7180.780",
    "PERIOD": "100.929",
    "APOGEE": "803.611",
    "PERIGEE": "801.679",
    "DECAYED": "0"
  },
  {
    "COMMENT": "GENERATED VIA SPACETRACK.ORG API",
    "ORIGINATOR": "18 SPCS",
    "NORAD_CAT_ID": "41335",
    "OBJECT_NAME": "SENTINEL 3A",
    "OBJECT_TYPE": "PAYLOAD",
    "CLASSIFICATION_TYPE": "U",
    "INTLDES": "16011A",
    "EPOCH": "2023-06-06 20:20:30",
    "EPOCH_MICROSECONDS": "742656",
    "MEAN_MOTION": "14.26741607",
    "ECCENTRICITY": "0.0001345",
    "INCLINATION": "98.6217",
    "RA_OF_ASC_NODE": "225.0504",
    "ARG_OF_PERICENTER": "96.2165",
    "MEAN_ANOMALY": "263.9168",
    "EPHEMERIS_TYPE": "0",
    "ELEMENT_SET_NO": "999",
    "REV_AT_EPOCH": "38030",
    "BSTAR": "0.000083551",
    "MEAN_MOTION_DOT": "0.00000159",
    "MEAN_MOTION_DDOT": "0",
    "FILE": "3926571",
    "TLE_LINE0": "0 SENTINEL 3A",
    "TLE_LINE1": "1 41335U 16011A   23157.84757804  .00000159  00000-0  83551-4 0  9997",
    "TLE_LINE2": "2 41335  98.6217 225.0504 0001345  96.2165 263.9168 14.26741607380308",
    "OBJECT_ID": "2016-011A",
    "OBJECT_NUMBER": "41335",
    "SEMIMAJOR_AXIS": "7180.780",
    "PERIOD": "100.929",
    "APOGEE": "803.611",
    "PERIGEE": "801.679",
    "DECAYED": "0"
  },
  {
    "COMMENT": "GENERATED VIA SPACETRACK.ORG API",
    "ORIGINATOR": "18 SPCS",
    "NORAD_CAT_ID": "41335",
    "OBJECT_NAME": "SENTINEL 3A",
    "OBJECT_TYPE": "PAYLOAD",
    "CLASSIFICATION_TYPE": "U",
    "INTLDES": "16011A",
    "EPOCH": "2023-06-07 03:04:27",
    "EPOCH_MICROSECONDS": "546240",
    "MEAN_MOTION": "14.26741724",
    "ECCENTRICITY": "0.0001343",
    "INCLINATION": "98.6216",
    "RA_OF_ASC_NODE": "225.3268",
    "ARG_OF_PERICENTER": "96.1522",
    "MEAN_ANOMALY": "263.9812",
    "EPHEMERIS_TYPE": "0",
    "ELEMENT_SET_NO": "999",
    "REV_AT_EPOCH": "38034",
    "BSTAR": "0.000082712",
    "MEAN_MOTION_DOT": "0.00000157",
    "MEAN_MOTION_DDOT": "0",
    "FILE": "3926646",
    "TLE_LINE0": "0 SENTINEL 3A",
    "TLE_LINE1": "1 41335U 16011A   23158.12809660  .00000157  00000-0  82712-4 0  9993",
    "TLE_LINE2": "2 41335  98.6216 225.3268 0001343  96.1522 263.9812 14.26741724380341",
    "OBJECT_ID": "2016-011A",
    "OBJECT_NUMBER": "41335",
    "SEMIMAJOR_AXIS": "7180.780",
    "PERIOD": "100.929",
    "APOGEE": "803.609",
    "PERIGEE": "801.680",
    "DECAYED": "0"
  },
  {
    "COMMENT": "GENERATED VIA SPACETRACK.ORG API",
    "ORIGINATOR": "18 SPCS",
    "NORAD_CAT_ID": "41335",
    "OBJECT_NAME": "SENTINEL 3A",
    "OBJECT_TYPE": "PAYLOAD",
    "CLASSIFICATION_TYPE": "U",
    "INTLDES": "16011A",
    "EPOCH": "2023-06-07 11:29:23",
    "EPOCH_MICROSECONDS": "549856",
    "MEAN_MOTION": "14.26741861",
    "ECCENTRICITY": "0.0001344",
    "INCLINATION": "98.6217",
    "RA_OF_ASC_NODE": "225.6723",
    "ARG_OF_PERICENTER": "96.0277",
    "MEAN_ANOMALY": "264.1057",
    "EPHEMERIS_TYPE": "0",
    "ELEMENT_SET_NO": "999",
    "REV_AT_EPOCH": "38039",
    "BSTAR": "0.000084333",
    "MEAN_MOTION_DOT": "0.00000161",
    "MEAN_MOTION_DDOT": "0",
    "FILE": "3927000",
    "TLE_LINE0": "0 SENTINEL 3A",
    "TLE_LINE1": "1 41335U 16011A   23158.47874479  .00000161  00000-0  84333-4 0  9997",
    "TLE_LINE2": "2 41335  98.6217 225.6723 0001344  96.0277 264.1057 14.26741861380399",
    "OBJECT_ID": "2016-011A",
    "OBJECT_NUMBER": "41335",
    "SEMIMAJOR_AXIS": "7180.779",
    "PERIOD": "100.929",
    "APOGEE": "803.609",
    "PERIGEE": "801.679",
    "DECAYED": "0"
  },
  {
    "COMMENT": "GENERATED VIA SPACETRACK.ORG API",
    "ORIGINATOR": "18 SPCS",
    "NORAD_CAT_ID": "41335",
    "OBJECT_NAME": "SENTINEL 3A",
    "OBJECT_TYPE": "PAYLOAD",
    "CLASSIFICATION_TYPE": "U",
    "INTLDES": "16011A",
    "EPOCH": "2023-06-07 13:10:22",
    "EPOCH_MICROSECONDS": "747296",
    "MEAN_MOTION": "14.26741947",
    "ECCENTRICITY": "0.0001342",
    "INCLINATION": "98.6217",
    "RA_OF_ASC_NODE": "225.7414",
    "ARG_OF_PERICENTER": "96.0767",
    "MEAN_ANOMALY": "264.0567",
    "EPHEMERIS_TYPE": "0",
    "ELEMENT_SET_NO": "999",
    "REV_AT_EPOCH": "38040",
    "BSTAR": "0.000087719",
    "MEAN_MOTION_DOT": "0.00000169",
    "MEAN_MOTION_DDOT": "0",
    "FILE": "3927174",
    "TLE_LINE0": "0 SENTINEL 3A",
    "TLE_LINE1": "1 41335U 16011A   23158.54887439  .00000169  00000-0  87719-4 0  9994",
    "TLE_LINE2": "2 41335  98.6217 225.7414 0001342  96.0767 264.0567 14.26741947380401",
    "OBJECT_ID": "2016-011A",
    "OBJECT_NUMBER": "41335",
    "SEMIMAJOR_AXIS": "7180.779",
    "PERIOD": "100.929",
    "APOGEE": "803.608",
    "PERIGEE": "801.680",
    "DECAYED": "0"
  },
  {
    "COMMENT": "GENERATED VIA SPACETRACK.ORG API",
    "ORIGINATOR": "18 SPCS",
    "NORAD_CAT_ID": "41335",
    "OBJECT_NAME": "SENTINEL 3A",
    "OBJECT_TYPE": "PAYLOAD",
    "CLASSIFICATION_TYPE": "U",
    "INTLDES": "16011A",
    "EPOCH": "2023-06-07 18:13:20",
    "EPOCH_MICROSECONDS": "344800",
    "MEAN_MOTION": "14.26742028",
    "ECCENTRICITY": "0.0001341",
    "INCLINATION": "98.6216",
    "RA_OF_ASC_NODE": "225.9487",
    "ARG_OF_PERICENTER": "95.9575",
    "MEAN_ANOMALY": "264.1759",
    "EPHEMERIS_TYPE": "0",
    "ELEMENT_SET_NO": "999",
    "REV_AT_EPOCH": "38043",
    "BSTAR": "0.000086649",
    "MEAN_MOTION_DOT": "0.00000166",
    "MEAN_MOTION_DDOT": "0",
    "FILE": "3927221",
    "TLE_LINE0": "0 SENTINEL 3A",
    "TLE_LINE1": "1 41335U 16011A   23158.75926325  .00000166  00000-0  86649-4 0  9993",
    "TLE_LINE2": "2 41335  98.6216 225.9487 0001341  95.9575 264.1759 14.26742028380434",
    "OBJECT_ID": "2016-011A",
    "OBJECT_NUMBER": "41335",
    "SEMIMAJOR_AXIS": "7180.779",
    "PERIOD": "100.929",
    "APOGEE": "803.607",
    "PERIGEE": "801.681",
    "DECAYED": "0"
  },
  {
    "COMMENT": "GENERATED VIA SPACETRACK.ORG API",
    "ORIGINATOR": "18 SPCS",
    "NORAD_CAT_ID": "41335",
    "OBJECT_NAME": "SENTINEL 3A",
    "OBJECT_TYPE": "PAYLOAD",
    "CLASSIFICATION_TYPE": "U",
    "INTLDES": "16011A",
    "EPOCH": "2023-06-07 21:35:18",
    "EPOCH_MICROSECONDS": "743136",
    "MEAN_MOTION": "14.26742084",
    "ECCENTRICITY": "0.0001341",
    "INCLINATION": "98.6216",
    "RA_OF_ASC_NODE": "226.0869",
    "ARG_OF_PERICENTER": "95.9767",
    "MEAN_ANOMALY": "264.1566",
    "EPHEMERIS_TYPE": "0",
    "ELEMENT_SET_NO": "999",
    "REV_AT_EPOCH": "38045",
    "BSTAR": "0.000087794",
    "MEAN_MOTION_DOT": "0.00000169",
    "MEAN_MOTION_DDOT": "0",
    "FILE": "3927436",
    "TLE_LINE0": "0 SENTINEL 3A",
    "TLE_LINE1": "1 41335U 16011A   23158.89952249  .00000169  00000-0  87794-4 0  9997",
    "TLE_LINE2": "2 41335  98.6216 226.0869 0001341  95.9767 264.1566 14.26742084380453",
    "OBJECT_ID": "2016-011A",
    "OBJECT_NUMBER": "41335",
    "SEMIMAJOR_AXIS": "7180.778",
    "PERIOD": "100.929",
    "APOGEE": "803.606",
    "PERIGEE": "801.680",
    "DECAYED": "0"
  }
]